[{"OBJECT_NAME":"STARLINK-3758","OBJECT_ID":"2022-041AN","EPOCH":"2026-03-09T08:32:28.540896","MEAN_MOTION":15.08839949,"ECCENTRICITY":0.0001376,"INCLINATION":53.2165,"RA_OF_ASC_NODE":100.6189,"ARG_OF_PERICENTER":94.6277,"MEAN_ANOMALY":265.4873,"EPHEMERIS_TYPE":0,"CLASSIFICATION_TYPE":"U","NORAD_CAT_ID":52297,"ELEMENT_SET_NO":999,"REV_AT_EPOCH":21445,"BSTAR":-1.2182526e-5,"MEAN_MOTION_DOT":-4.82e-6,"MEAN_MOTION_DDOT":0},{"OBJECT_NAME":"BREEZE-M DEB [TANK]","OBJECT_ID":"2015-005C","EPOCH":"2026-03-09T13:16:35.146848","MEAN_MOTION":5.34000108,"ECCENTRICITY":0.5135533,"INCLINATION":50.6711,"RA_OF_ASC_NODE":122.3165,"ARG_OF_PERICENTER":96.2902,"MEAN_ANOMALY":322.0119,"EPHEMERIS_TYPE":0,"CLASSIFICATION_TYPE":"U","NORAD_CAT_ID":40386,"ELEMENT_SET_NO":999,"REV_AT_EPOCH":21042,"BSTAR":0.00075261,"MEAN_MOTION_DOT":2.24e-5,"MEAN_MOTION_DDOT":0}]
